NORAD_CAT_ID,OBJECT_NAME,OBJECT_TYPE,EPOCH,MEAN_MOTION,ECCENTRICITY,INCLINATION,RA_OF_ASC_NODE,ARG_OF_PERICENTER,MEAN_ANOMALY,BSTAR,MEAN_MOTION_DOT,MEAN_MOTION_DDOT,TLE_LINE0,TLE_LINE1,TLE_LINE2,SEMIMAJOR_AXIS,PERIOD,APOGEE,PERIGEE,DECAYED
55749.0,STARLINK-5560,PAYLOAD,2023-10-31 22:00:01,14.98352562,0.000297,70.002,252.1869,265.033,177.1882,-0.00063933,-7.717e-05,0.0,0 STARLINK-5560,1 55749U 23028J   23304.91668981 -.00007717  00000-0 -63933-3 0  9996,2 55749  70.0020 252.1869 0002970 265.0330 177.1882 14.98352562 37257,6950.123,96.106,574.052,569.924,0.0
55749.0,STARLINK-5560,PAYLOAD,2023-11-01 14:00:01,14.9830968,0.000302,70.0016,250.5061,268.2932,168.9214,0.00062841,7.409e-05,0.0,0 STARLINK-5560,1 55749U 23028J   23305.58335648  .00007409  00000-0  62841-3 0  9994,2 55749  70.0016 250.5061 0003020 268.2932 168.9214 14.98309680 37359,6950.256,96.108,574.22,570.022,0.0
55749.0,STARLINK-5560,PAYLOAD,2023-11-01 22:00:00,14.98343919,0.0003073,70.0018,249.6658,266.0043,168.601,-0.00060139,-7.264e-05,0.0,0 STARLINK-5560,1 55749U 23028J   23305.91667824 -.00007264  00000-0 -60139-3 0  9994,2 55749  70.0018 249.6658 0003073 266.0043 168.6010 14.98343919  5246,6950.15,96.106,574.151,569.879,0.0
55749.0,STARLINK-5560,PAYLOAD,2023-11-02 14:00:01,14.98312152,0.0003035,70.0014,247.9849,269.4062,160.189,0.0015008,0.00017852,0.0,0 STARLINK-5560,1 55749U 23028J   23306.58334491  .00017852  00000-0  15008-2 0  9995,2 55749  70.0014 247.9849 0003035 269.4062 160.1890 14.98312152  5340,6950.248,96.108,574.222,570.004,0.0
55749.0,STARLINK-5560,PAYLOAD,2023-11-02 22:00:01,14.98353473,0.0003075,70.0016,247.1446,267.6976,159.4192,-0.00086894,-0.00010452,0.0,0 STARLINK-5560,1 55749U 23028J   23306.91668981 -.00010452  00000-0 -86894-3 0  9999,2 55749  70.0016 247.1446 0003075 267.6976 159.4192 14.98353473 37550,6950.12,96.105,574.122,569.848,0.0
55749.0,STARLINK-5560,PAYLOAD,2023-11-03 13:43:28,14.98337381,0.0002812,70.0019,245.4925,270.3018,89.7819,0.00032842,3.829e-05,0.0,0 STARLINK-5560,1 55749U 23028J   23307.57185437  .00003829  00000-0  32842-3 0  9994,2 55749  70.0019 245.4925 0002812 270.3018  89.7819 14.98337381 37654,6950.17,96.107,573.989,570.081,0.0
55749.0,STARLINK-5560,PAYLOAD,2023-11-03 21:44:08,14.98333569,0.0002785,70.0015,244.6496,269.1682,90.9158,0.00016627,1.892e-05,0.0,0 STARLINK-5560,1 55749U 23028J   23307.90565503  .00001892  00000-0  16627-3 0  9998,2 55749  70.0015 244.6496 0002785 269.1682  90.9158 14.98333569 37706,6950.182,96.107,573.982,570.111,0.0
55749.0,STARLINK-5560,PAYLOAD,2023-11-04 04:08:40,14.98336205,0.0002765,70.0012,243.9779,269.5595,90.5247,0.00021334,2.454e-05,0.0,0 STARLINK-5560,1 55749U 23028J   23308.17269426  .00002454  00000-0  21334-3 0  9999,2 55749  70.0012 243.9779 0002765 269.5595  90.5247 14.98336205 37743,6950.174,96.107,573.96,570.117,0.0
55749.0,STARLINK-5560,PAYLOAD,2023-11-04 13:45:29,14.9833481,0.0002787,70.0014,242.9681,267.3625,92.7215,0.00012426,1.39e-05,0.0,0 STARLINK-5560,1 55749U 23028J   23308.57325406  .00001390  00000-0  12426-3 0  9994,2 55749  70.0014 242.9681 0002787 267.3625  92.7215 14.98334810 37806,6950.178,96.107,573.98,570.106,0.0
55749.0,STARLINK-5560,PAYLOAD,2023-11-04 21:46:09,14.98333116,0.0002801,70.0014,242.1267,272.126,87.9578,0.00014391,1.625e-05,0.0,0 STARLINK-5560,1 55749U 23028J   23308.90705502  .00001625  00000-0  14391-3 0  9994,2 55749  70.0014 242.1267 0002801 272.1260  87.9578 14.98333116 37855,6950.183,96.107,573.995,570.102,0.0
55749.0,STARLINK-5560,PAYLOAD,2023-11-05 04:10:41,14.98346324,0.0002823,70.0008,241.4538,269.9072,90.1763,0.00034705,4.052e-05,0.0,0 STARLINK-5560,1 55749U 23028J   23309.17408808  .00004052  00000-0  34705-3 0  9991,2 55749  70.0008 241.4538 0002823 269.9072  90.1763 14.98346324 37891,6950.142,96.106,573.969,570.045,0.0
55749.0,STARLINK-5560,PAYLOAD,2023-11-05 05:46:49,14.98349647,0.0002823,70.0012,241.2854,269.8309,90.2527,0.00052125,6.135e-05,0.0,0 STARLINK-5560,1 55749U 23028J   23309.24084736  .00006135  00000-0  52125-3 0  9999,2 55749  70.0012 241.2854 0002823 269.8309  90.2527 14.98349647 37909,6950.132,96.106,573.959,570.035,0.0
55749.0,STARLINK-5560,PAYLOAD,2023-11-05 21:48:09,14.98355483,0.0002697,70.0023,239.6031,268.6718,91.4132,0.0006001,7.079e-05,0.0,0 STARLINK-5560,1 55749U 23028J   23309.90844068  .00007079  00000-0  60010-3 0  9994,2 55749  70.0023 239.6031 0002697 268.6718  91.4132 14.98355483 38001,6950.114,96.105,573.854,570.105,0.0
55749.0,STARLINK-5560,PAYLOAD,2023-11-06 02:36:32,14.9837044,0.0002053,70.0033,239.0966,263.3025,96.79,0.00094012,0.00011154,0.0,0 STARLINK-5560,1 55749U 23028J   23310.10871352  .00011154  00000-0  94012-3 0  9992,2 55749  70.0033 239.0966 0002053 263.3025  96.7900 14.98370440 38036,6950.068,96.104,573.36,570.506,0.0
55749.0,STARLINK-5560,PAYLOAD,2023-11-06 12:13:20,14.98353532,0.0002422,70.0028,238.0877,258.8654,101.2233,-0.00016577,-2.071e-05,0.0,0 STARLINK-5560,1 55749U 23028J   23310.50926770 -.00002071  00000-0 -16577-3 0  9991,2 55749  70.0028 238.0877 0002422 258.8654 101.2233 14.98353532 38097,6950.12,96.105,573.668,570.302,0.0
55749.0,STARLINK-5560,PAYLOAD,2023-11-06 20:14:01,14.98305731,0.0003027,70.0008,237.2444,262.7707,97.3108,-0.0019733,-0.00023544,0.0,0 STARLINK-5560,1 55749U 23028J   23310.84307569 -.00023544  00000-0 -19733-2 0  9991,2 55749  70.0008 237.2444 0003027 262.7707  97.3108 14.98305731 38141,6950.268,96.109,574.237,570.029,0.0
55749.0,STARLINK-5560,PAYLOAD,2023-11-06 21:50:09,14.98304995,0.000286,70.0019,237.0774,256.0763,104.0078,-0.0017978,-0.00021464,0.0,0 STARLINK-5560,1 55749U 23028J   23310.90983666 -.00021464  00000-0 -17978-2 0  9994,2 55749  70.0019 237.0774 0002860 256.0763 104.0078 14.98304995 38153,6950.27,96.109,574.123,570.147,0.0
55749.0,STARLINK-5560,PAYLOAD,2023-11-07 04:14:42,14.98306255,0.0002546,70.0022,236.4049,253.0869,107.0011,-0.00075443,-9.077e-05,0.0,0 STARLINK-5560,1 55749U 23028J   23311.17688240 -.00009077  00000-0 -75443-3 0  9992,2 55749  70.0022 236.4049 0002546 253.0869 107.0011 14.98306255 38195,6950.266,96.109,573.901,570.362,0.0
55749.0,STARLINK-5560,PAYLOAD,2023-11-07 12:15:23,14.98305734,0.0002748,70.0021,235.5634,257.4775,102.6076,0.00027449,3.182e-05,0.0,0 STARLINK-5560,1 55749U 23028J   23311.51068956  .00003182  00000-0  27449-3 0  9998,2 55749  70.0021 235.5634 0002748 257.4775 102.6076 14.98305734 38241,6950.268,96.109,574.043,570.223,0.0
55749.0,STARLINK-5560,PAYLOAD,2023-11-08 02:40:36,14.9831719,0.0002926,70.0021,234.049,255.308,104.7755,0.00084466,9.996e-05,0.0,0 STARLINK-5560,1 55749U 23028J   23312.11153635  .00009996  00000-0  84466-3 0  9995,2 55749  70.0021 234.0490 0002926 255.3080 104.7755 14.98317190 38335,6950.233,96.108,574.131,570.064,0.0
55749.0,STARLINK-5560,PAYLOAD,2023-11-08 05:52:52,14.98328626,0.0002768,70.002,233.7111,253.5728,106.5127,0.0011017,0.00013076,0.0,0 STARLINK-5560,1 55749U 23028J   23312.24505614  .00013076  00000-0  11017-2 0  9992,2 55749  70.0020 233.7111 0002768 253.5728 106.5127 14.98328626 38354,6950.197,96.107,573.986,570.138,0.0
55749.0,STARLINK-5560,PAYLOAD,2023-11-08 21:54:13,14.9833715,0.0002708,70.0022,232.0273,250.1281,109.9586,0.00058111,6.849e-05,0.0,0 STARLINK-5560,1 55749U 23028J   23312.91265484  .00006849  00000-0  58111-3 0  9991,2 55749  70.0022 232.0273 0002708 250.1281 109.9586 14.98337150 38457,6950.171,96.107,573.918,570.154,0.0
55749.0,STARLINK-5560,PAYLOAD,2023-11-09 04:18:45,14.98345429,0.0002942,70.0016,231.3541,255.9627,104.1205,0.00092029,0.00010909,0.0,0 STARLINK-5560,1 55749U 23028J   23313.17969183  .00010909  00000-0  92029-3 0  9995,2 55749  70.0016 231.3541 0002942 255.9627 104.1205 14.98345429 38494,6950.145,96.106,574.055,569.965,0.0
55749.0,STARLINK-5560,PAYLOAD,2023-11-09 20:20:06,14.98335418,0.0002742,70.0025,229.6716,258.696,101.3891,0.00026662,3.09e-05,0.0,0 STARLINK-5560,1 55749U 23028J   23313.84729412  .00003090  00000-0  26662-3 0  9991,2 55749  70.0025 229.6716 0002742 258.6960 101.3891 14.98335418 38594,6950.176,96.107,573.947,570.135,0.0
55749.0,STARLINK-5560,PAYLOAD,2023-11-10 04:20:46,14.98333907,0.0002769,70.0018,228.8291,260.4301,99.6545,0.00021743,2.503e-05,0.0,0 STARLINK-5560,1 55749U 23028J   23314.18109520  .00002503  00000-0  21743-3 0  9994,2 55749  70.0018 228.8291 0002769 260.4301  99.6545 14.98333907 38646,6950.181,96.107,573.97,570.121,0.0
55749.0,STARLINK-5560,PAYLOAD,2023-11-10 12:21:26,14.98334905,0.0002758,70.0021,227.9879,260.5965,99.4882,0.00025427,2.943e-05,0.0,0 STARLINK-5560,1 55749U 23028J   23314.51489487  .00002943  00000-0  25427-3 0  9995,2 55749  70.0021 227.9879 0002758 260.5965  99.4882 14.98334905 38693,6950.178,96.107,573.96,570.126,0.0
55749.0,STARLINK-5560,PAYLOAD,2023-11-10 21:58:15,14.98337391,0.0002821,70.0015,226.9781,263.1845,96.8994,0.00027874,3.235e-05,0.0,0 STARLINK-5560,1 55749U 23028J   23314.91545312  .00003235  00000-0  27874-3 0  9992,2 55749  70.0015 226.9781 0002821 263.1845  96.8994 14.98337391 38758,6950.17,96.107,573.996,570.074,0.0
55749.0,STARLINK-5560,PAYLOAD,2023-11-11 04:22:47,14.9834503,0.0002774,70.0019,226.305,263.2941,96.7902,0.00051308,6.037e-05,0.0,0 STARLINK-5560,1 55749U 23028J   23315.18248999  .00006037  00000-0  51308-3 0  9995,2 55749  70.0019 226.3050 0002774 263.2941  96.7902 14.98345030 38791,6950.146,96.106,573.939,570.083,0.0
55749.0,STARLINK-5560,PAYLOAD,2023-11-11 20:24:08,14.98335032,0.0002364,70.0031,224.6224,263.4268,96.6622,0.0001866,2.134e-05,0.0,0 STARLINK-5560,1 55749U 23028J   23315.85009285  .00002134  00000-0  18660-3 0  9990,2 55749  70.0031 224.6224 0002364 263.4268  96.6622 14.98335032 38898,6950.177,96.107,573.685,570.399,0.0
55749.0,STARLINK-5560,PAYLOAD,2023-11-11 22:00:16,14.98330573,0.0002513,70.0023,224.4536,266.9117,93.1755,0.00017894,2.043e-05,0.0,0 STARLINK-5560,1 55749U 23028J   23315.91685388  .00002043  00000-0  17894-3 0  9998,2 55749  70.0023 224.4536 0002513 266.9117  93.1755 14.98330573 38906,6950.191,96.107,573.803,570.31,0.0
